[{"OBJECT_NAME":"YAOGAN-24","OBJECT_ID":"2014-072A","EPOCH":"2026-03-09T23:33:58.619808","MEAN_MOTION":14.76230497,"ECCENTRICITY":0.00123495,"INCLINATION":98.131,"RA_OF_ASC_NODE":205.5775,"ARG_OF_PERICENTER":217.5868,"MEAN_ANOMALY":142.4479,"EPHEMERIS_TYPE":0,"CLASSIFICATION_TYPE":"U","NORAD_CAT_ID":40310,"ELEMENT_SET_NO":999,"REV_AT_EPOCH":60908,"BSTAR":0.00015342398,"MEAN_MOTION_DOT":1.01e-5,"MEAN_MOTION_DDOT":0},{"OBJECT_NAME":"FENGYUN 1C DEB","OBJECT_ID":"1999-025TY","EPOCH":"2026-03-09T12:12:39.280608","MEAN_MOTION":14.48869078,"ECCENTRICITY":0.0141958,"INCLINATION":98.958,"RA_OF_ASC_NODE":164.0211,"ARG_OF_PERICENTER":254.4414,"MEAN_ANOMALY":170.2643,"EPHEMERIS_TYPE":0,"CLASSIFICATION_TYPE":"U","NORAD_CAT_ID":30167,"ELEMENT_SET_NO":999,"REV_AT_EPOCH":614,"BSTAR":0.0004994601,"MEAN_MOTION_DOT":2.088e-5,"MEAN_MOTION_DDOT":0}]
